{"type": "FeatureCollection", "features": [ {"type": "Feature", "properties": {"norad_id": 35432, "name": "COSMOS 2251 DEB", "group": "cosmos-2251-debris", "lat": 2.8329232156009723, "lon": 169.48543840128178, "alt_km": 501.5833889651358, "timestamp": "2025-12-24T16:52:41.933598+00:00", "meta": {"OBJECT_NAME": "COSMOS 2251 DEB", "OBJECT_ID": "1993-036AKA", "EPOCH": "2025-12-24T06:39:14.313600", "MEAN_MOTION": 15.2444661, "ECCENTRICITY": 0.00124517, "INCLINATION": 74.022, "RA_OF_ASC_NODE": 351.1973, "ARG_OF_PERICENTER": 322.1047, "MEAN_ANOMALY": 37.9275, "EPHEMERIS_TYPE": 0, "CLASSIFICATION_TYPE": "U", "NORAD_CAT_ID": 35432, "ELEMENT_SET_NO": 999, "REV_AT_EPOCH": 87679, "BSTAR": 0.0021028798, "MEAN_MOTION_DOT": 0.0005207, "MEAN_MOTION_DDOT": 0}, "tle": {"line1": "1 35432U 93036AKA 25358.27724900  .00052070  00000+0  21029-2 0  9991", "line2": "2 35432  74.0220 351.1973 0012451 322.1047  37.9275 15.24446610876798"}}, "geometry": {"type": "Point", "coordinates": [169.48543840128178, 2.8329232156009723]}}, {"type": "Feature", "properties": {"norad_id": 35433, "name": "COSMOS 2251 DEB", "group": "cosmos-2251-debris", "lat": 54.805502079846626, "lon": 112.58541807475743, "alt_km": 777.3652243228516, "timestamp": "2025-12-24T16:52:41.933627+00:00", "meta": {"OBJECT_NAME": "COSMOS 2251 DEB", "OBJECT_ID": "1993-036AKB", "EPOCH": "2025-12-10T18:27:52.031808", "MEAN_MOTION": 14.34742553, "ECCENTRICITY": 0.00254013, "INCLINATION": 74.0339, "RA_OF_ASC_NODE": 342.0559, "ARG_OF_PERICENTER": 37.4572, "MEAN_ANOMALY": 142.4072, "EPHEMERIS_TYPE": 0, "CLASSIFICATION_TYPE": "U", "NORAD_CAT_ID": 35433, "ELEMENT_SET_NO": 999, "REV_AT_EPOCH": 86552, "BSTAR": 0.00041847558, "MEAN_MOTION_DOT": 1.164e-05, "MEAN_MOTION_DDOT": 0}, "tle": {"line1": "1 35433U 93036AKB 25344.76935222  .00001164  00000+0  41848-3 0  9992", "line2": "2 35433  74.0339 342.0559 0025401  37.4572 142.4072 14.34742553865528"}}, "geometry": {"type": "Point", "coordinates": [112.58541807475743, 54.805502079846626]}}, {"type": "Feature", "properties": {"norad_id": 35434, "name": "COSMOS 2251 DEB", "group": "cosmos-2251-debris", "lat": 7.278998744181535, "lon": -165.87261439903787, "alt_km": 825.9936144764188, "timestamp": "2025-12-24T16:52:41.933640+00:00", "meta": {"OBJECT_NAME": "COSMOS 2251 DEB", "OBJECT_ID": "1993-036AKC", "EPOCH": "2025-12-23T05:28:40.876896", "MEAN_MOTION": 14.25716012, "ECCENTRICITY": 0.00872798, "INCLINATION": 74.0389, "RA_OF_ASC_NODE": 194.6941, "ARG_OF_PERICENTER": 263.2384, "MEAN_ANOMALY": 95.8825, "EPHEMERIS_TYPE": 0, "CLASSIFICATION_TYPE": "U", "NORAD_CAT_ID": 35434, "ELEMENT_SET_NO": 999, "REV_AT_EPOCH": 86267, "BSTAR": 0.00051853095, "MEAN_MOTION_DOT": 1.255e-05, "MEAN_MOTION_DDOT": 0}, "tle": {"line1": "1 35434U 93036AKC 25357.22825089  .00001255  00000+0  51853-3 0  9995", "line2": "2 35434  74.0389 194.6941 0087279 263.2384  95.8825 14.25716012862672"}}, "geometry": {"type": "Point", "coordinates": [-165.87261439903787, 7.278998744181535]}}, {"type": "Feature", "properties": {"norad_id": 35435, "name": "COSMOS 2251 DEB", "group": "cosmos-2251-debris", "lat": -40.41104837295389, "lon": 66.38896794625744, "alt_km": 643.069429649564, "timestamp": "2025-12-24T16:52:41.933651+00:00", "meta": {"OBJECT_NAME": "COSMOS 2251 DEB", "OBJECT_ID": "1993-036AKD", "EPOCH": "2025-12-21T23:02:18.053952", "MEAN_MOTION": 14.78725447, "ECCENTRICITY": 0.0007022, "INCLINATION": 74.0111, "RA_OF_ASC_NODE": 85.9177, "ARG_OF_PERICENTER": 183.0187, "MEAN_ANOMALY": 296.3821, "EPHEMERIS_TYPE": 0, "CLASSIFICATION_TYPE": "U", "NORAD_CAT_ID": 35435, "ELEMENT_SET_NO": 999, "REV_AT_EPOCH": 87675, "BSTAR": 0.0022341039, "MEAN_MOTION_DOT": 0.00016414, "MEAN_MOTION_DDOT": 0}, "tle": {"line1": "1 35435U 93036AKD 25355.95993118  .00016414  00000+0  22341-2 0  9995", "line2": "2 35435  74.0111  85.9177 0007022 183.0187 296.3821 14.78725447876755"}}, "geometry": {"type": "Point", "coordinates": [66.38896794625744, -40.41104837295389]}}, {"type": "Feature", "properties": {"norad_id": 35439, "name": "COSMOS 2251 DEB", "group": "cosmos-2251-debris", "lat": 26.605201396439334, "lon": -74.01068300840085, "alt_km": 1025.569044296497, "timestamp": "2025-12-24T16:52:41.933662+00:00", "meta": {"OBJECT_NAME": "COSMOS 2251 DEB", "OBJECT_ID": "1993-036AKH", "EPOCH": "2025-12-23T01:03:41.280192", "MEAN_MOTION": 13.9285581, "ECCENTRICITY": 0.02428241, "INCLINATION": 74.0195, "RA_OF_ASC_NODE": 117.083, "ARG_OF_PERICENTER": 284.1415, "MEAN_ANOMALY": 194.5054, "EPHEMERIS_TYPE": 0, "CLASSIFICATION_TYPE": "U", "NORAD_CAT_ID": 35439, "ELEMENT_SET_NO": 999, "REV_AT_EPOCH": 84104, "BSTAR": 0.0017241175, "MEAN_MOTION_DOT": 2.822e-05, "MEAN_MOTION_DDOT": 0}, "tle": {"line1": "1 35439U 93036AKH 25357.04422778  .00002822  00000+0  17241-2 0  9991", "line2": "2 35439  74.0195 117.0830 0242824 284.1415 194.5054 13.92855810841046"}}, "geometry": {"type": "Point", "coordinates": [-74.01068300840085, 26.605201396439334]}}, {"type": "Feature", "properties": {"norad_id": 35440, "name": "COSMOS 2251 DEB", "group": "cosmos-2251-debris", "lat": -68.28061309944894, "lon": 50.47227208391, "alt_km": 652.4854637711096, "timestamp": "2025-12-24T16:52:41.933673+00:00", "meta": {"OBJECT_NAME": "COSMOS 2251 DEB", "OBJECT_ID": "1993-036AKJ", "EPOCH": "2025-12-22T19:34:52.667040", "MEAN_MOTION": 14.68858524, "ECCENTRICITY": 0.00697181, "INCLINATION": 74.0136, "RA_OF_ASC_NODE": 188.1002, "ARG_OF_PERICENTER": 326.674, "MEAN_ANOMALY": 33.0049, "EPHEMERIS_TYPE": 0, "CLASSIFICATION_TYPE": "U", "NORAD_CAT_ID": 35440, "ELEMENT_SET_NO": 999, "REV_AT_EPOCH": 68913, "BSTAR": 0.00037964995, "MEAN_MOTION_DOT": 2.268e-05, "MEAN_MOTION_DDOT": 0}, "tle": {"line1": "1 35440U 93036AKJ 25356.81588735  .00002268  00000+0  37965-3 0  9993", "line2": "2 35440  74.0136 188.1002 0069718 326.6740  33.0049 14.68858524689135"}}, "geometry": {"type": "Point", "coordinates": [50.47227208391, -68.28061309944894]}}, {"type": "Feature", "properties": {"norad_id": 35441, "name": "COSMOS 2251 DEB", "group": "cosmos-2251-debris", "lat": -52.5771295897734, "lon": -106.50599417239911, "alt_km": 709.421062989064, "timestamp": "2025-12-24T16:52:41.933684+00:00", "meta": {"OBJECT_NAME": "COSMOS 2251 DEB", "OBJECT_ID": "1993-036AKK", "EPOCH": "2025-12-24T00:43:11.053056", "MEAN_MOTION": 14.62751051, "ECCENTRICITY": 0.00360342, "INCLINATION": 74.1348, "RA_OF_ASC_NODE": 276.594, "ARG_OF_PERICENTER": 169.0549, "MEAN_ANOMALY": 191.1411, "EPHEMERIS_TYPE": 0, "CLASSIFICATION_TYPE": "U", "NORAD_CAT_ID": 35441, "ELEMENT_SET_NO": 999, "REV_AT_EPOCH": 87595, "BSTAR": 0.001432905, "MEAN_MOTION_DOT": 7.351e-05, "MEAN_MOTION_DDOT": 0}, "tle": {"line1": "1 35441U 93036AKK 25358.02998904  .00007351  00000+0  14329-2 0  9998", "line2": "2 35441  74.1348 276.5940 0036034 169.0549 191.1411 14.62751051875953"}}, "geometry": {"type": "Point", "coordinates": [-106.50599417239911, -52.5771295897734]}}, {"type": "Feature", "properties": {"norad_id": 35442, "name": "COSMOS 2251 DEB", "group": "cosmos-2251-debris", "lat": 48.90258669592346, "lon": 94.5574727979311, "alt_km": 606.6395265299725, "timestamp": "2025-12-24T16:52:41.933695+00:00", "meta": {"OBJECT_NAME": "COSMOS 2251 DEB", "OBJECT_ID": "1993-036AKL", "EPOCH": "2025-12-23T11:32:24.012672", "MEAN_MOTION": 14.8478997, "ECCENTRICITY": 0.000395, "INCLINATION": 74.0271, "RA_OF_ASC_NODE": 77.8141, "ARG_OF_PERICENTER": 44.74, "MEAN_ANOMALY": 315.4097, "EPHEMERIS_TYPE": 0, "CLASSIFICATION_TYPE": "U", "NORAD_CAT_ID": 35442, "ELEMENT_SET_NO": 999, "REV_AT_EPOCH": 87512, "BSTAR": 0.0019664343, "MEAN_MOTION_DOT": 0.00016699, "MEAN_MOTION_DDOT": 0}, "tle": {"line1": "1 35442U 93036AKL 25357.48083348  .00016699  00000+0  19664-2 0  9997", "line2": "2 35442  74.0271  77.8141 0003950  44.7400 315.4097 14.84789970875124"}}, "geometry": {"type": "Point", "coordinates": [94.5574727979311, 48.90258669592346]}}, {"type": "Feature", "properties": {"norad_id": 35443, "name": "COSMOS 2251 DEB", "group": "cosmos-2251-debris", "lat": -73.03077602095745, "lon": -162.47065436996945, "alt_km": 631.5158920099484, "timestamp": "2025-12-24T16:52:41.933706+00:00", "meta": {"OBJECT_NAME": "COSMOS 2251 DEB", "OBJECT_ID": "1993-036AKM", "EPOCH": "2025-12-22T07:35:27.878496", "MEAN_MOTION": 14.97448955, "ECCENTRICITY": 0.00729664, "INCLINATION": 73.9898, "RA_OF_ASC_NODE": 312.1571, "ARG_OF_PERICENTER": 91.4914, "MEAN_ANOMALY": 269.4631, "EPHEMERIS_TYPE": 0, "CLASSIFICATION_TYPE": "U", "NORAD_CAT_ID": 35443, "ELEMENT_SET_NO": 999, "REV_AT_EPOCH": 87021, "BSTAR": 0.0042887537, "MEAN_MOTION_DOT": 0.00053082, "MEAN_MOTION_DDOT": 0}, "tle": {"line1": "1 35443U 93036AKM 25356.31629489  .00053082  00000+0  42888-2 0  9992", "line2": "2 35443  73.9898 312.1571 0072966  91.4914 269.4631 14.97448955870218"}}, "geometry": {"type": "Point", "coordinates": [-162.47065436996945, -73.03077602095745]}}, {"type": "Feature", "properties": {"norad_id": 35445, "name": "COSMOS 2251 DEB", "group": "cosmos-2251-debris", "lat": 65.5346370844085, "lon": 58.21255503021911, "alt_km": 717.4695856310063, "timestamp": "2025-12-24T16:52:41.933717+00:00", "meta": {"OBJECT_NAME": "COSMOS 2251 DEB", "OBJECT_ID": "1993-036AKP", "EPOCH": "2025-12-24T01:34:57.730080", "MEAN_MOTION": 14.59387435, "ECCENTRICITY": 0.01440757, "INCLINATION": 74.0373, "RA_OF_ASC_NODE": 278.4098, "ARG_OF_PERICENTER": 2.737, "MEAN_ANOMALY": 357.4548, "EPHEMERIS_TYPE": 0, "CLASSIFICATION_TYPE": "U", "NORAD_CAT_ID": 35445, "ELEMENT_SET_NO": 999, "REV_AT_EPOCH": 87494, "BSTAR": 0.0020478091, "MEAN_MOTION_DOT": 0.00011197, "MEAN_MOTION_DDOT": 0}, "tle": {"line1": "1 35445U 93036AKP 25358.06594595  .00011197  00000+0  20478-2 0  9999", "line2": "2 35445  74.0373 278.4098 0144075   2.7370 357.4548 14.59387435874942"}}, "geometry": {"type": "Point", "coordinates": [58.21255503021911, 65.5346370844085]}}]}